{"type": "FeatureCollection", "features": [ {"type": "Feature", "properties": {"norad_id": 43622, "name": "BEIDOU-3 M13 (C32)", "group": "beidou", "lat": 11.451869076813903, "lon": -119.05945606569178, "alt_km": 21538.216675889977, "timestamp": "2025-12-18T07:01:54.854943+00:00", "meta": {"OBJECT_NAME": "BEIDOU-3 M13 (C32)", "OBJECT_ID": "2018-072A", "EPOCH": "2025-12-16T10:25:06.248640", "MEAN_MOTION": 1.86231042, "ECCENTRICITY": 0.00060076, "INCLINATION": 56.4627, "RA_OF_ASC_NODE": 68.6976, "ARG_OF_PERICENTER": 299.0037, "MEAN_ANOMALY": 60.9582, "EPHEMERIS_TYPE": 0, "CLASSIFICATION_TYPE": "U", "NORAD_CAT_ID": 43622, "ELEMENT_SET_NO": 999, "REV_AT_EPOCH": 4925, "BSTAR": 0, "MEAN_MOTION_DOT": -7.9e-07, "MEAN_MOTION_DDOT": 0}, "tle": {"line1": "1 43622U 18072A   25350.43410010 -.00000079  00000+0  00000+0 0  9998", "line2": "2 43622  56.4627  68.6976 0006007 299.0037  60.9582  1.86231042 49251"}}, "geometry": {"type": "Point", "coordinates": [-119.05945606569178, 11.451869076813903]}}, {"type": "Feature", "properties": {"norad_id": 43623, "name": "BEIDOU-3 M14 (C33)", "group": "beidou", "lat": -54.15565171947408, "lon": -44.92704991393528, "alt_km": 21531.738764939113, "timestamp": "2025-12-18T07:01:54.854954+00:00", "meta": {"OBJECT_NAME": "BEIDOU-3 M14 (C33)", "OBJECT_ID": "2018-072B", "EPOCH": "2025-12-17T08:57:48.957984", "MEAN_MOTION": 1.86231002, "ECCENTRICITY": 0.00033285, "INCLINATION": 56.4654, "RA_OF_ASC_NODE": 68.6605, "ARG_OF_PERICENTER": 332.8139, "MEAN_ANOMALY": 27.1942, "EPHEMERIS_TYPE": 0, "CLASSIFICATION_TYPE": "U", "NORAD_CAT_ID": 43623, "ELEMENT_SET_NO": 999, "REV_AT_EPOCH": 4926, "BSTAR": 0, "MEAN_MOTION_DOT": -7.3e-07, "MEAN_MOTION_DDOT": 0}, "tle": {"line1": "1 43623U 18072B   25351.37348331 -.00000073  00000+0  00000+0 0  9993", "line2": "2 43623  56.4654  68.6605 0003328 332.8139  27.1942  1.86231002 49265"}}, "geometry": {"type": "Point", "coordinates": [-44.92704991393528, -54.15565171947408]}}, {"type": "Feature", "properties": {"norad_id": 43647, "name": "BEIDOU-3 M16 (C35)", "group": "beidou", "lat": 23.281056578117987, "lon": 108.26738266633907, "alt_km": 21538.452615672708, "timestamp": "2025-12-18T07:01:54.854965+00:00", "meta": {"OBJECT_NAME": "BEIDOU-3 M16 (C35)", "OBJECT_ID": "2018-078A", "EPOCH": "2025-12-16T10:58:34.332384", "MEAN_MOTION": 1.86232417, "ECCENTRICITY": 0.00072794, "INCLINATION": 54.2586, "RA_OF_ASC_NODE": 306.3912, "ARG_OF_PERICENTER": 19.6101, "MEAN_ANOMALY": 340.4043, "EPHEMERIS_TYPE": 0, "CLASSIFICATION_TYPE": "U", "NORAD_CAT_ID": 43647, "ELEMENT_SET_NO": 999, "REV_AT_EPOCH": 4875, "BSTAR": 0, "MEAN_MOTION_DOT": -9.5e-07, "MEAN_MOTION_DDOT": 0}, "tle": {"line1": "1 43647U 18078A   25350.45734181 -.00000095  00000+0  00000+0 0  9999", "line2": "2 43647  54.2586 306.3912 0007279  19.6101 340.4043  1.86232417 48759"}}, "geometry": {"type": "Point", "coordinates": [108.26738266633907, 23.281056578117987]}}, {"type": "Feature", "properties": {"norad_id": 43648, "name": "BEIDOU-3 M15 (C34)", "group": "beidou", "lat": 46.92089154470593, "lon": -3.3772933595726404, "alt_km": 21514.414774720415, "timestamp": "2025-12-18T07:01:54.854976+00:00", "meta": {"OBJECT_NAME": "BEIDOU-3 M15 (C34)", "OBJECT_ID": "2018-078B", "EPOCH": "2025-12-17T15:51:04.131072", "MEAN_MOTION": 1.86232271, "ECCENTRICITY": 0.00039327, "INCLINATION": 54.253, "RA_OF_ASC_NODE": 306.3494, "ARG_OF_PERICENTER": 20.2564, "MEAN_ANOMALY": 339.7463, "EPHEMERIS_TYPE": 0, "CLASSIFICATION_TYPE": "U", "NORAD_CAT_ID": 43648, "ELEMENT_SET_NO": 999, "REV_AT_EPOCH": 4879, "BSTAR": 0, "MEAN_MOTION_DOT": -8.8e-07, "MEAN_MOTION_DDOT": 0}, "tle": {"line1": "1 43648U 18078B   25351.66046448 -.00000088  00000+0  00000+0 0  9998", "line2": "2 43648  54.2530 306.3494 0003932  20.2564 339.7463  1.86232271 48796"}}, "geometry": {"type": "Point", "coordinates": [-3.3772933595726404, 46.92089154470593]}}, {"type": "Feature", "properties": {"norad_id": 43683, "name": "BEIDOU-3 G1 (C59)", "group": "beidou", "lat": -2.012278852289191, "lon": -27.359306994626866, "alt_km": 35793.921841860065, "timestamp": "2025-12-18T07:01:54.854988+00:00", "meta": {"OBJECT_NAME": "BEIDOU-3 G1 (C59)", "OBJECT_ID": "2018-085A", "EPOCH": "2025-12-17T20:50:22.386624", "MEAN_MOTION": 1.00269423, "ECCENTRICITY": 0.00016353, "INCLINATION": 2.6203, "RA_OF_ASC_NODE": 102.8168, "ARG_OF_PERICENTER": 48.69, "MEAN_ANOMALY": 27.8697, "EPHEMERIS_TYPE": 0, "CLASSIFICATION_TYPE": "U", "NORAD_CAT_ID": 43683, "ELEMENT_SET_NO": 999, "REV_AT_EPOCH": 2624, "BSTAR": 0, "MEAN_MOTION_DOT": -2.54e-06, "MEAN_MOTION_DDOT": 0}, "tle": {"line1": "1 43683U 18085A   25351.86831466 -.00000254  00000+0  00000+0 0  9994", "line2": "2 43683   2.6203 102.8168 0001635  48.6900  27.8697  1.00269423 26247"}}, "geometry": {"type": "Point", "coordinates": [-27.359306994626866, -2.012278852289191]}}, {"type": "Feature", "properties": {"norad_id": 43706, "name": "BEIDOU-3 M17 (C36)", "group": "beidou", "lat": -33.064744136270775, "lon": 160.3706082721691, "alt_km": 21515.551074774176, "timestamp": "2025-12-18T07:01:54.855000+00:00", "meta": {"OBJECT_NAME": "BEIDOU-3 M17 (C36)", "OBJECT_ID": "2018-093A", "EPOCH": "2025-12-15T07:56:44.520576", "MEAN_MOTION": 1.86228523, "ECCENTRICITY": 0.00061371, "INCLINATION": 54.1729, "RA_OF_ASC_NODE": 188.5337, "ARG_OF_PERICENTER": 307.6759, "MEAN_ANOMALY": 184.25, "EPHEMERIS_TYPE": 0, "CLASSIFICATION_TYPE": "U", "NORAD_CAT_ID": 43706, "ELEMENT_SET_NO": 999, "REV_AT_EPOCH": 4811, "BSTAR": 0, "MEAN_MOTION_DOT": 1.13e-06, "MEAN_MOTION_DDOT": 0}, "tle": {"line1": "1 43706U 18093A   25349.33107084  .00000113  00000+0  00000+0 0  9993", "line2": "2 43706  54.1729 188.5337 0006137 307.6759 184.2500  1.86228523 48110"}}, "geometry": {"type": "Point", "coordinates": [160.3706082721691, -33.064744136270775]}}, {"type": "Feature", "properties": {"norad_id": 43707, "name": "BEIDOU-3 M18 (C37)", "group": "beidou", "lat": 38.77179384668237, "lon": -136.08086395576476, "alt_km": 21514.201310988115, "timestamp": "2025-12-18T07:01:54.855011+00:00", "meta": {"OBJECT_NAME": "BEIDOU-3 M18 (C37)", "OBJECT_ID": "2018-093B", "EPOCH": "2025-12-16T14:33:42.784416", "MEAN_MOTION": 1.8622677, "ECCENTRICITY": 0.00063186, "INCLINATION": 54.1735, "RA_OF_ASC_NODE": 188.4822, "ARG_OF_PERICENTER": 353.2257, "MEAN_ANOMALY": 6.8349, "EPHEMERIS_TYPE": 0, "CLASSIFICATION_TYPE": "U", "NORAD_CAT_ID": 43707, "ELEMENT_SET_NO": 999, "REV_AT_EPOCH": 4813, "BSTAR": 0, "MEAN_MOTION_DOT": 1.15e-06, "MEAN_MOTION_DDOT": 0}, "tle": {"line1": "1 43707U 18093B   25350.60674519  .00000115  00000+0  00000+0 0  9990", "line2": "2 43707  54.1735 188.4822 0006318 353.2257   6.8349  1.86226770 48131"}}, "geometry": {"type": "Point", "coordinates": [-136.08086395576476, 38.77179384668237]}}, {"type": "Feature", "properties": {"norad_id": 44204, "name": "BEIDOU-3 IGSO-1 (C38)", "group": "beidou", "lat": -58.195232038251, "lon": -58.576855887692034, "alt_km": 35718.241157352204, "timestamp": "2025-12-18T07:01:54.855022+00:00", "meta": {"OBJECT_NAME": "BEIDOU-3 IGSO-1 (C38)", "OBJECT_ID": "2019-023A", "EPOCH": "2025-11-19T14:15:02.708640", "MEAN_MOTION": 1.00252177, "ECCENTRICITY": 0.0026966, "INCLINATION": 58.4003, "RA_OF_ASC_NODE": 39.8168, "ARG_OF_PERICENTER": 221.2202, "MEAN_ANOMALY": 126.9723, "EPHEMERIS_TYPE": 0, "CLASSIFICATION_TYPE": "U", "NORAD_CAT_ID": 44204, "ELEMENT_SET_NO": 999, "REV_AT_EPOCH": 510, "BSTAR": 0, "MEAN_MOTION_DOT": -2.26e-06, "MEAN_MOTION_DDOT": 0}, "tle": {"line1": "1 44204U 19023A   25323.59378135 -.00000226  00000+0  00000+0 0  9994", "line2": "2 44204  58.4003  39.8168 0026966 221.2202 126.9723  1.00252177  5102"}}, "geometry": {"type": "Point", "coordinates": [-58.576855887692034, -58.195232038251]}}, {"type": "Feature", "properties": {"norad_id": 44231, "name": "BEIDOU-2 G8 (C01)", "group": "beidou", "lat": -1.6658949563925658, "lon": -22.95690545809716, "alt_km": 35751.010319453984, "timestamp": "2025-12-18T07:01:54.855038+00:00", "meta": {"OBJECT_NAME": "BEIDOU-2 G8 (C01)", "OBJECT_ID": "2019-027A", "EPOCH": "2025-12-17T20:51:37.267776", "MEAN_MOTION": 1.00266922, "ECCENTRICITY": 0.00087563, "INCLINATION": 1.6746, "RA_OF_ASC_NODE": 74.7233, "ARG_OF_PERICENTER": 258.9366, "MEAN_ANOMALY": 210.4054, "EPHEMERIS_TYPE": 0, "CLASSIFICATION_TYPE": "U", "NORAD_CAT_ID": 44231, "ELEMENT_SET_NO": 999, "REV_AT_EPOCH": 2426, "BSTAR": 0, "MEAN_MOTION_DOT": -2.25e-06, "MEAN_MOTION_DDOT": 0}, "tle": {"line1": "1 44231U 19027A   25351.86918134 -.00000225  00000+0  00000+0 0  9997", "line2": "2 44231   1.6746  74.7233 0008756 258.9366 210.4054  1.00266922 24269"}}, "geometry": {"type": "Point", "coordinates": [-22.95690545809716, -1.6658949563925658]}}, {"type": "Feature", "properties": {"norad_id": 44337, "name": "BEIDOU-3 IGSO-2 (C39)", "group": "beidou", "lat": 23.176778952531013, "lon": -36.89658026505812, "alt_km": 35684.68782510079, "timestamp": "2025-12-18T07:01:54.855050+00:00", "meta": {"OBJECT_NAME": "BEIDOU-3 IGSO-2 (C39)", "OBJECT_ID": "2019-035A", "EPOCH": "2025-12-17T20:45:00.400608", "MEAN_MOTION": 1.00269779, "ECCENTRICITY": 0.00374701, "INCLINATION": 55.227, "RA_OF_ASC_NODE": 160.4563, "ARG_OF_PERICENTER": 202.3425, "MEAN_ANOMALY": 154.6367, "EPHEMERIS_TYPE": 0, "CLASSIFICATION_TYPE": "U", "NORAD_CAT_ID": 44337, "ELEMENT_SET_NO": 999, "REV_AT_EPOCH": 2384, "BSTAR": 0, "MEAN_MOTION_DOT": -4.5e-07, "MEAN_MOTION_DDOT": 0}, "tle": {"line1": "1 44337U 19035A   25351.86458797 -.00000045  00000+0  00000+0 0  9997", "line2": "2 44337  55.2270 160.4563 0037470 202.3425 154.6367  1.00269779 23848"}}, "geometry": {"type": "Point", "coordinates": [-36.89658026505812, 23.176778952531013]}}]}